[{"OBJECT_NAME":"STARLINK-3578","OBJECT_ID":"2022-022S","EPOCH":"2026-03-09T05:44:13.825824","MEAN_MOTION":15.08839548,"ECCENTRICITY":0.00015104,"INCLINATION":53.2196,"RA_OF_ASC_NODE":11.1471,"ARG_OF_PERICENTER":81.7343,"MEAN_ANOMALY":278.382,"EPHEMERIS_TYPE":0,"CLASSIFICATION_TYPE":"U","NORAD_CAT_ID":51868,"ELEMENT_SET_NO":999,"REV_AT_EPOCH":22304,"BSTAR":2.0512154e-5,"MEAN_MOTION_DOT":3.8e-7,"MEAN_MOTION_DDOT":0},{"OBJECT_NAME":"DISKSAT B","OBJECT_ID":"2025-305B","EPOCH":"2026-03-09T19:33:34.074144","MEAN_MOTION":15.07484556,"ECCENTRICITY":0.00037827,"INCLINATION":45.0018,"RA_OF_ASC_NODE":250.2098,"ARG_OF_PERICENTER":311.4052,"MEAN_ANOMALY":48.6498,"EPHEMERIS_TYPE":0,"CLASSIFICATION_TYPE":"U","NORAD_CAT_ID":67220,"ELEMENT_SET_NO":999,"REV_AT_EPOCH":1231,"BSTAR":0.00082400752,"MEAN_MOTION_DOT":0.00012481,"MEAN_MOTION_DDOT":0}]
