STARLINK-3578           
1 51868U 22022S   26068.23904891  .00000038  00000+0  20512-4 0  9998
2 51868  53.2196  11.1471 0001510  81.7343 278.3820 15.08839548223046
DISKSAT B               
1 67220U 25305B   26068.81497770  .00012481  00000+0  82401-3 0  9990
2 67220  45.0018 250.2098 0003783 311.4052  48.6498 15.07484556 12311
